E-ST@R-II               
1 41459U 16025D   22086.19179190  .00014360  00000+0  65247-3 0  9992
2 41459  98.1752 245.4200 0151741 188.1040 171.7791 15.11092517325066
AAUSAT 4                
1 41460U 16025E   22086.20418140  .00022876  00000+0  94882-3 0  9995
2 41460  98.1724 250.9522 0135148 166.6922 193.7993 15.15828990325466
BEESAT-4                
1 41619U 16040W   22086.42242366  .00012132  00000+0  43846-3 0  9995
2 41619  97.2289 139.3421 0010990  56.4392 303.7897 15.28541988308189
CANX-7                  
1 41788U 16059F   22086.60636730  .00299759  00000+0  13220-1 0  9997
2 41788  98.2132 211.1457 0019127 284.0432  91.5166 15.20259884296176
RAVAN                   
1 41849U 16067B   22086.41657540  .00002728  00000+0  22412-3 0  9998
2 41849  97.9914 221.1108 0013126 244.0200 115.9671 15.00012929293695
CELTEE 1                
1 41850U 16067C   22086.30046696  .00002210  00000+0  19238-3 0  9990
2 41850  97.9832 216.3679 0007426 243.6577 116.3882 14.97999109293455
OPTICUBE 04             
1 41851U 16067D   22086.31441897  .00001553  00000+0  13856-3 0  9993
2 41851  97.9829 215.5328 0007127 250.4044 109.6408 14.97481455293412
AEROCUBE 8D             
1 41852U 16067E   22086.34962993  .00002110  00000+0  18464-3 0  9992
2 41852  97.9795 215.5195 0008803 250.1313 109.8960 14.97830990293401
AEROCUBE 8C             
1 41853U 16067F   22086.59625992  .00001545  00000+0  13676-3 0  9996
2 41853  97.9805 215.6059 0008630 253.4438 106.5836 14.97808552293434
PROMETHEUS 2-1          
1 41854U 16067G   22086.35314692  .00003484  00000+0  29526-3 0  9998
2 41854  97.9794 216.2803 0009791 247.6673 112.3512 14.98635780293440
PROMETHEUS 2-3          
1 41855U 16067H   22086.34701289  .00003301  00000+0  27981-3 0  9991
2 41855  97.9797 216.3471 0010107 250.7111 109.3018 14.98659306293448
INS-1B                  
1 41954U 17008G   22086.11772872  .00010685  00000+0  38079-3 0  9991
2 41954  97.2682 147.8038 0008949 160.4678 199.6907 15.29055553284153
BGUSAT                  
1 41999U 17008BD  22086.44210132  .00022744  00000+0  65941-3 0  9999
2 41999  97.2900 157.4192 0007503 154.5008 205.6608 15.35521252284033
DIDO-2                  
1 42000U 17008BE  22086.42988065  .00006485  00000+0  24584-3 0  9990
2 42000  97.2674 147.8239 0007943 178.6498 181.4765 15.27187128283549
PEASSS                  
1 42015U 17008BV  22086.48273839  .00009266  00000+0  32661-3 0  9993
2 42015  97.2732 151.2855 0006087 171.7576 188.3766 15.29476199284237
AL-FARABI 1             
1 42016U 17008BW  22086.17893444  .00013301  00000+0  43870-3 0  9999
2 42016  97.2793 153.6175 0005973 169.0002 191.1372 15.31538597284445
NAYIF-1 (EO-88)         
1 42017U 17008BX  22086.46133599  .00014062  00000+0  46223-3 0  9990
2 42017  97.2782 153.9016 0006074 167.5473 192.5920 15.31635693284516
UCLSAT                  
1 42765U 17036A   22086.37081411  .00009378  00000+0  35071-3 0  9999
2 42765  97.2101 131.6820 0008384 250.9423 109.0909 15.27508296265315
LITUANICASAT-2          
1 42768U 17036D   22086.37371180  .00018480  00000+0  61617-3 0  9996
2 42768  97.2190 133.7112 0010921 234.0970 125.9258 15.31075293264676
AALTO-1                 
1 42775U 17036L   22086.54425919  .00005779  00000+0  23897-3 0  9998
2 42775  97.2097 127.3763 0011269 253.1659 106.8343 15.24290927264299
URSA MAIOR              
1 42776U 17036M   22086.55150067  .00006238  00000+0  25450-3 0  9997
2 42776  97.2111 128.0376 0011037 251.6789 108.3249 15.24716909264324
COMPASS 2               
1 42777U 17036N   22086.40175955  .00014298  00000+0  50431-3 0  9997
2 42777  97.2174 133.4189 0009308 236.6169 123.4181 15.29318618264591
DIAMOND RED             
1 42783U 17036U   22086.39146412  .00007349  00000+0  28951-3 0  9999
2 42783  97.2117 130.0541 0009302 258.3771 101.6424 15.25844217264429
PEGASUS                 
1 42784U 17036V   22086.38169650  .00008985  00000+0  34298-3 0  9996
2 42784  97.2111 131.0371 0009079 254.7147 105.3089 15.26833602264485
DIAMOND GREEN           
1 42785U 17036W   22086.39040828  .00007598  00000+0  29932-3 0  9991
2 42785  97.2121 130.1139 0009174 258.9905 101.0302 15.25833691264492
DIAMOND BLUE            
1 42786U 17036X   22086.38933546  .00007569  00000+0  29793-3 0  9992
2 42786  97.2122 130.1054 0009156 259.4063 100.6144 15.25862971264493
NUDTSAT                 
1 42787U 17036Y   22086.58753695  .00012442  00000+0  42773-3 0  9999
2 42787  97.2148 134.7996 0008253 239.2922 120.7519 15.30194303264564
SUCHAI                  
1 42788U 17036Z   22086.39473233  .00011069  00000+0  40558-3 0  9999
2 42788  97.2125 132.4852 0008600 248.8023 111.2299 15.28135949264647
SKCUBE                  
1 42789U 17036AA  22086.35761307  .00009698  00000+0  36123-3 0  9996
2 42789  97.2121 131.9964 0008553 250.1417 109.8901 15.27629401264533
VZLUSAT-1               
1 42790U 17036AB  22086.39354518  .00014946  00000+0  51418-3 0  9990
2 42790  97.2150 134.5915 0007815 240.3449 119.7014 15.30133974264688
ROBUSTA-1B              
1 42792U 17036AD  22086.40327381  .00011004  00000+0  40450-3 0  9998
2 42792  97.2117 132.5484 0008103 249.6808 110.3561 15.28034578264584
CICERO 6                
1 42793U 17036AE  22086.54122429  .00006811  00000+0  26837-3 0  9993
2 42793  97.2096 130.7751 0007714 257.0791 102.9586 15.25878897264579
CORVUS BC2              
1 42846U 17042X   22086.57072079  .00001172  00000+0  11880-3 0  9994
2 42846  97.4349 308.4699 0007949 271.9850  88.0460 14.92636281256069
CORVUS BC1              
1 42847U 17042Y   22086.52297941  .00000861  00000+0  88487-4 0  9999
2 42847  97.4352 308.7156 0007589 270.9286  89.1064 14.92736029256060
MIRATA                  
1 43015U 17073C   22086.53329478  .00007301  00000+0  53793-3 0  9990
2 43015  97.6831 344.9154 0244951  90.1957 272.7325 14.82606927235121
MAKERSAT 0              
1 43016U 17073D   22086.41298102  .00004296  00000+0  32318-3 0  9997
2 43016  97.6855 344.5433 0250595  94.2036 268.7856 14.81294030235040
AEROCUBE 7B (OCSD B)    
1 43042U 17071F   22086.50013048  .00059442  00000+0  67864-3 0  9995
2 43042  51.6339 101.4790 0002795  10.8912 349.2142 15.61614794242814
AEROCUBE 7C (OCSD C)    
1 43043U 17071G   22086.52678456  .00057558  00000+0  67687-3 0  9997
2 43043  51.6331 102.3771 0002867   4.9234 355.1787 15.60858881242779
ASGARDIA 1              
1 43049U 17071N   22086.30615704  .00051255  00000+0  63913-3 0  9992
2 43049  51.6342 104.0889 0003258  26.0422 334.0734 15.59369974242737
PROPCUBE 2 (FAUNA)      
1 43052U 17071R   22086.38261205  .00064148  00000+0  71116-3 0  9996
2 43052  51.6312  97.0527 0003515  36.5710 323.5524 15.62339645242826
CORVUS BC3              
1 43118U 18004H   22086.50532941  .00005913  00000+0  23292-3 0  9995
2 43118  97.3695 160.3243 0008029 295.4439  64.5968 15.25954167233711
MICROMAS-2A             
1 43131U 18004W   22086.49825019  .00019879  00000+0  64607-3 0  9990
2 43131  97.3808 165.8226 0006166 276.1836  83.8703 15.31929025234017
SPACEBEE-4              
1 43139U 18004AE  22086.46430597  .00030651  00000+0  85219-3 0  9991
2 43139  97.3897 169.7815 0005481 264.4649  95.5970 15.36787847234229
SPACEBEE-3              
1 43140U 18004AF  22086.46540912  .00049310  00000+0  11709-2 0  9990
2 43140  97.3941 172.5737 0005229 252.8335 107.2340 15.41524048234386
SPACEBEE-2              
1 43141U 18004AG  22086.48918878  .00056242  00000+0  12541-2 0  9990
2 43141  97.3967 173.6766 0005025 249.0318 111.0393 15.43379562234441
SPACEBEE-1              
1 43142U 18004AH  22086.44091048  .00064758  00000+0  13307-2 0  9990
2 43142  97.3982 174.7734 0005290 243.5282 116.5425 15.45756459234496
CICERO 7                
1 43143U 18004AJ  22086.44015595  .00012439  00000+0  41991-3 0  9994
2 43143  97.3786 165.5678 0004641 293.1890  66.8862 15.30814625234013
GOMX-4B                 
1 43196U 18015E   22086.34596634  .00003559  00000+0  14107-3 0  9993
2 43196  97.5190 225.1007 0017393 350.6053   9.4857 15.25941056230633
GOMX-4A                 
1 43197U 18015F   22086.60151711  .00005519  00000+0  20863-3 0  9990
2 43197  97.5181 225.9577 0017105 349.0954  69.2063 15.27262523230727
AEROCUBE 12A            
1 43556U 18046C   22086.54535148  .00015906  00000+0  45953-3 0  9994
2 43556  51.6367 222.1441 0006422 100.4607 259.7100 15.35789686206719
AEROCUBE 12B            
1 43557U 18046D   22086.52941953  .00015197  00000+0  45699-3 0  9997
2 43557  51.6376 225.7290 0006760  99.0922 261.0826 15.34561057206618
SURFSAT                 
1 43614U 18070B   22086.49815169  .00029879  00000+0  55748-3 0  9991
2 43614  93.0247  64.1297 0010791   1.3031 358.8254 15.48636142198351
CP7 (DAVE)              
1 43615U 18070C   22086.45898837  .00027597  00000+0  52660-3 0  9996
2 43615  93.0247  64.0129 0011172   1.2486 358.8798 15.47993405198329
ELFIN-B                 
1 43616U 18070D   22086.45417835  .00046413  00000+0  68646-3 0  9991
2 43616  93.0171  64.7833 0009309 359.4386   0.6865 15.55105405198568
ELFIN-A                 
1 43617U 18070E   22086.41348498  .00052951  00000+0  75248-3 0  9996
2 43617  93.0242  65.9474 0008088 356.6821   3.4388 15.56184986198594
CUBEBEL-1 (BSUSAT-1)    
1 43666U 18083E   22086.50661769  .00006844  00000+0  30678-3 0  9991
2 43666  97.4308 116.1804 0011964 258.0302 240.0642 15.21487122189010
CICERO 10               
1 43690U 18088A   22086.29833564  .00007981  00000+0  33402-3 0  9994
2 43690  85.0412  10.8043 0016719  90.0047 270.3112 15.23261211187246
IRVINE01                
1 43693U 18088D   22086.25391778  .00029323  00000+0  94689-3 0  9997
2 43693  85.0354   6.3159 0017108  63.2705 297.0290 15.31832339187616
PROXIMA I               
1 43694U 18088E   22086.27880568  .00007709  00000+0  30645-3 0  9996
2 43694  85.0348   7.7152 0020236  61.7413 298.5869 15.24923226187440
